[{"OBJECT_NAME":"FENGYUN 1C DEB","OBJECT_ID":"1999-025DJJ","EPOCH":"2026-03-05T13:18:55.997856","MEAN_MOTION":14.22909657,"ECCENTRICITY":0.0053164,"INCLINATION":99.1061,"RA_OF_ASC_NODE":109.5114,"ARG_OF_PERICENTER":32.7321,"MEAN_ANOMALY":327.7132,"EPHEMERIS_TYPE":0,"CLASSIFICATION_TYPE":"U","NORAD_CAT_ID":33745,"ELEMENT_SET_NO":999,"REV_AT_EPOCH":67179,"BSTAR":0.0016047,"MEAN_MOTION_DOT":3.615e-5,"MEAN_MOTION_DDOT":0},{"OBJECT_NAME":"FENGYUN 1C DEB","OBJECT_ID":"1999-025DJQ","EPOCH":"2026-03-02T15:18:33.410016","MEAN_MOTION":14.14103442,"ECCENTRICITY":0.02561285,"INCLINATION":94.617,"RA_OF_ASC_NODE":203.736,"ARG_OF_PERICENTER":313.4474,"MEAN_ANOMALY":44.565,"EPHEMERIS_TYPE":0,"CLASSIFICATION_TYPE":"U","NORAD_CAT_ID":35088,"ELEMENT_SET_NO":999,"REV_AT_EPOCH":59928,"BSTAR":0.0036521815,"MEAN_MOTION_DOT":9.515e-5,"MEAN_MOTION_DDOT":0},{"OBJECT_NAME":"FENGYUN 1C DEB","OBJECT_ID":"1999-025DJR","EPOCH":"2026-03-05T23:03:35.917632","MEAN_MOTION":14.19729567,"ECCENTRICITY":0.00282853,"INCLINATION":98.5589,"RA_OF_ASC_NODE":77.0156,"ARG_OF_PERICENTER":179.4313,"MEAN_ANOMALY":180.6901,"EPHEMERIS_TYPE":0,"CLASSIFICATION_TYPE":"U","NORAD_CAT_ID":35089,"ELEMENT_SET_NO":999,"REV_AT_EPOCH":62056,"BSTAR":0.0007650755,"MEAN_MOTION_DOT":1.583e-5,"MEAN_MOTION_DDOT":0},{"OBJECT_NAME":"FENGYUN 1C DEB","OBJECT_ID":"1999-025DJS","EPOCH":"2026-03-05T12:03:26.634240","MEAN_MOTION":14.18152105,"ECCENTRICITY":0.0056819,"INCLINATION":99.1946,"RA_OF_ASC_NODE":85.1165,"ARG_OF_PERICENTER":141.0875,"MEAN_ANOMALY":219.441,"EPHEMERIS_TYPE":0,"CLASSIFICATION_TYPE":"U","NORAD_CAT_ID":35090,"ELEMENT_SET_NO":999,"REV_AT_EPOCH":67423,"BSTAR":0.0016585,"MEAN_MOTION_DOT":3.415e-5,"MEAN_MOTION_DDOT":0},{"OBJECT_NAME":"FENGYUN 1C DEB","OBJECT_ID":"1999-025DKE","EPOCH":"2026-03-05T19:33:12.851712","MEAN_MOTION":14.29142862,"ECCENTRICITY":0.00592493,"INCLINATION":98.4801,"RA_OF_ASC_NODE":77.819,"ARG_OF_PERICENTER":206.0662,"MEAN_ANOMALY":153.7534,"EPHEMERIS_TYPE":0,"CLASSIFICATION_TYPE":"U","NORAD_CAT_ID":35102,"ELEMENT_SET_NO":999,"REV_AT_EPOCH":66099,"BSTAR":0.00058025924,"MEAN_MOTION_DOT":1.457e-5,"MEAN_MOTION_DDOT":0},{"OBJECT_NAME":"FENGYUN 1C DEB","OBJECT_ID":"1999-025DKH","EPOCH":"2026-03-01T18:45:12.599712","MEAN_MOTION":14.45647085,"ECCENTRICITY":0.0111077,"INCLINATION":98.9543,"RA_OF_ASC_NODE":51.0995,"ARG_OF_PERICENTER":177.9369,"MEAN_ANOMALY":182.2302,"EPHEMERIS_TYPE":0,"CLASSIFICATION_TYPE":"U","NORAD_CAT_ID":35105,"ELEMENT_SET_NO":999,"REV_AT_EPOCH":95635,"BSTAR":0.00028374,"MEAN_MOTION_DOT":1.029e-5,"MEAN_MOTION_DDOT":0},{"OBJECT_NAME":"FENGYUN 1C DEB","OBJECT_ID":"1999-025DKL","EPOCH":"2026-02-07T16:51:00.061920","MEAN_MOTION":14.07011667,"ECCENTRICITY":0.01328176,"INCLINATION":98.8031,"RA_OF_ASC_NODE":37.818,"ARG_OF_PERICENTER":261.0385,"MEAN_ANOMALY":97.5731,"EPHEMERIS_TYPE":0,"CLASSIFICATION_TYPE":"U","NORAD_CAT_ID":35108,"ELEMENT_SET_NO":999,"REV_AT_EPOCH":90039,"BSTAR":0.00047329305,"MEAN_MOTION_DOT":8.12e-6,"MEAN_MOTION_DDOT":0},{"OBJECT_NAME":"FENGYUN 1C DEB","OBJECT_ID":"1999-025DKM","EPOCH":"2026-03-06T10:22:58.820736","MEAN_MOTION":14.21009942,"ECCENTRICITY":0.01528552,"INCLINATION":98.6248,"RA_OF_ASC_NODE":57.7041,"ARG_OF_PERICENTER":151.4495,"MEAN_ANOMALY":209.5162,"EPHEMERIS_TYPE":0,"CLASSIFICATION_TYPE":"U","NORAD_CAT_ID":35109,"ELEMENT_SET_NO":999,"REV_AT_EPOCH":65348,"BSTAR":0.00023234359,"MEAN_MOTION_DOT":5.24e-6,"MEAN_MOTION_DDOT":0},{"OBJECT_NAME":"FENGYUN 1C DEB","OBJECT_ID":"1999-025DKP","EPOCH":"2026-03-06T04:42:55.351872","MEAN_MOTION":14.11119511,"ECCENTRICITY":0.00212253,"INCLINATION":99.4551,"RA_OF_ASC_NODE":153.2581,"ARG_OF_PERICENTER":352.8846,"MEAN_ANOMALY":7.2019,"EPHEMERIS_TYPE":0,"CLASSIFICATION_TYPE":"U","NORAD_CAT_ID":35111,"ELEMENT_SET_NO":999,"REV_AT_EPOCH":65321,"BSTAR":0.00047954886,"MEAN_MOTION_DOT":8.16e-6,"MEAN_MOTION_DDOT":0},{"OBJECT_NAME":"FENGYUN 1C DEB","OBJECT_ID":"1999-025DKZ","EPOCH":"2026-02-16T09:28:09.444000","MEAN_MOTION":14.04807452,"ECCENTRICITY":0.0156434,"INCLINATION":98.2996,"RA_OF_ASC_NODE":270.0998,"ARG_OF_PERICENTER":270.2034,"MEAN_ANOMALY":88.1211,"EPHEMERIS_TYPE":0,"CLASSIFICATION_TYPE":"U","NORAD_CAT_ID":35121,"ELEMENT_SET_NO":999,"REV_AT_EPOCH":62013,"BSTAR":0.00032299,"MEAN_MOTION_DOT":5.38e-6,"MEAN_MOTION_DDOT":0},{"OBJECT_NAME":"FENGYUN 1C DEB","OBJECT_ID":"1999-025DLA","EPOCH":"2026-03-06T12:15:30.127968","MEAN_MOTION":14.14236561,"ECCENTRICITY":0.00236243,"INCLINATION":98.6672,"RA_OF_ASC_NODE":86.4408,"ARG_OF_PERICENTER":280.5231,"MEAN_ANOMALY":79.3281,"EPHEMERIS_TYPE":0,"CLASSIFICATION_TYPE":"U","NORAD_CAT_ID":35122,"ELEMENT_SET_NO":999,"REV_AT_EPOCH":65051,"BSTAR":0.00036235396,"MEAN_MOTION_DOT":6.5e-6,"MEAN_MOTION_DDOT":0},{"OBJECT_NAME":"FENGYUN 1C DEB","OBJECT_ID":"1999-025DLB","EPOCH":"2026-03-04T23:16:20.421120","MEAN_MOTION":14.24445228,"ECCENTRICITY":0.0048452,"INCLINATION":99.1272,"RA_OF_ASC_NODE":254.8026,"ARG_OF_PERICENTER":199.8025,"MEAN_ANOMALY":160.1273,"EPHEMERIS_TYPE":0,"CLASSIFICATION_TYPE":"U","NORAD_CAT_ID":35123,"ELEMENT_SET_NO":999,"REV_AT_EPOCH":62244,"BSTAR":0.00049711514,"MEAN_MOTION_DOT":1.118e-5,"MEAN_MOTION_DDOT":0},{"OBJECT_NAME":"FENGYUN 1C DEB","OBJECT_ID":"1999-025DLD","EPOCH":"2026-03-02T06:27:21.138624","MEAN_MOTION":14.33736573,"ECCENTRICITY":0.00533904,"INCLINATION":98.2153,"RA_OF_ASC_NODE":73.2901,"ARG_OF_PERICENTER":57.6577,"MEAN_ANOMALY":302.9762,"EPHEMERIS_TYPE":0,"CLASSIFICATION_TYPE":"U","NORAD_CAT_ID":35125,"ELEMENT_SET_NO":999,"REV_AT_EPOCH":32421,"BSTAR":0.0014252071,"MEAN_MOTION_DOT":3.983e-5,"MEAN_MOTION_DDOT":0}]
