FENGYUN 1C DEB          
1 33745U 99025DJJ 26064.55481479  .00003615  00000+0  16047-2 0  9992
2 33745  99.1061 109.5114 0053164  32.7321 327.7132 14.22909657671798
FENGYUN 1C DEB          
1 35088U 99025DJQ 26061.63788669  .00009515  00000+0  36522-2 0  9996
2 35088  94.6170 203.7360 0256128 313.4474  44.5650 14.14103442599285
FENGYUN 1C DEB          
1 35089U 99025DJR 26064.96083238  .00001583  00000+0  76508-3 0  9992
2 35089  98.5589  77.0156 0028285 179.4313 180.6901 14.19729567620565
FENGYUN 1C DEB          
1 35090U 99025DJS 26064.50239160  .00003415  00000+0  16585-2 0  9995
2 35090  99.1946  85.1165 0056819 141.0875 219.4410 14.18152105674239
FENGYUN 1C DEB          
1 35102U 99025DKE 26064.81473208  .00001457  00000+0  58026-3 0  9997
2 35102  98.4801  77.8190 0059249 206.0662 153.7534 14.29142862660993
FENGYUN 1C DEB          
1 35105U 99025DKH 26060.78139583  .00001029  00000+0  28374-3 0  9995
2 35105  98.9543  51.0995 0111077 177.9369 182.2302 14.45647085956352
FENGYUN 1C DEB          
1 35108U 99025DKL 26038.70208405  .00000812  00000+0  47329-3 0  9995
2 35108  98.8031  37.8180 0132817 261.0385  97.5731 14.07011667900398
FENGYUN 1C DEB          
1 35109U 99025DKM 26065.43262524  .00000524  00000+0  23234-3 0  9997
2 35109  98.6248  57.7041 0152855 151.4495 209.5162 14.21009942653489
FENGYUN 1C DEB          
1 35111U 99025DKP 26065.19647398  .00000816  00000+0  47955-3 0  9999
2 35111  99.4551 153.2581 0021225 352.8846   7.2019 14.11119511653210
FENGYUN 1C DEB          
1 35121U 99025DKZ 26047.39455375  .00000538  00000+0  32299-3 0  9990
2 35121  98.2996 270.0998 0156434 270.2034  88.1211 14.04807452620131
FENGYUN 1C DEB          
1 35122U 99025DLA 26065.51076537  .00000650  00000+0  36235-3 0  9993
2 35122  98.6672  86.4408 0023624 280.5231  79.3281 14.14236561650511
FENGYUN 1C DEB          
1 35123U 99025DLB 26063.96968080  .00001118  00000+0  49712-3 0  9998
2 35123  99.1272 254.8026 0048452 199.8025 160.1273 14.24445228622444
FENGYUN 1C DEB          
1 35125U 99025DLD 26061.26899466  .00003983  00000+0  14252-2 0  9994
2 35125  98.2153  73.2901 0053390  57.6577 302.9762 14.33736573324218
